start=new Date('2023-06-05T00:00:00.000Z').valueOf();
sats=[{"LAUNCH_DATE":"2022-04-29","MEAN_MOTION_DDOT":"0.0000000000000","ECCENTRICITY":"0.00012430","BSTAR":"0.00006714700000","OBJECT_ID":"2022-045AF","MEAN_ELEMENT_THEORY":"SGP4","ARG_OF_PERICENTER":"83.1733","CLASSIFICATION_TYPE":"U","MEAN_ANOMALY":"276.9400","MEAN_MOTION":"15.08840929","EPOCH":"2023-06-04T21:16:48.952416","SEMIMAJOR_AXIS":"6917.878","APOAPSIS":"540.602","TLE_LINE1":"1 52360U 22045AF  23155.88667769  .00000781  00000-0  67147-4 0  9997","TIME_SYSTEM":"UTC","RCS_SIZE":"LARGE","MEAN_MOTION_DOT":"0.00000781","EPHEMERIS_TYPE":"0","COUNTRY_CODE":"US","OBJECT_TYPE":"PAYLOAD","PERIAPSIS":"538.883","ELEMENT_SET_NO":"999","OBJECT_NAME":"STARLINK-3824","FILE":"3925173","GP_ID":"233218856","TLE_LINE2":"2 52360  53.2185  37.8101 0001243  83.1733 276.9400 15.08840929 63617","DECAY_DATE":null,"REF_FRAME":"TEME","RA_OF_ASC_NODE":"37.8101","INCLINATION":"53.2185","CENTER_NAME":"EARTH","SITE":"AFETR","REV_AT_EPOCH":"6361","NORAD_CAT_ID":"52360","PERIOD":"95.437"},{"APOAPSIS":"540.536","TLE_LINE1":"1 52361U 22045AG  23155.90048052  .00000570  00000-0  53924-4 0  9993","TIME_SYSTEM":"UTC","RCS_SIZE":"LARGE","MEAN_MOTION_DOT":"0.00000570","EPHEMERIS_TYPE":"0","LAUNCH_DATE":"2022-04-29","MEAN_MOTION_DDOT":"0.0000000000000","BSTAR":"0.00005392400000","ECCENTRICITY":"0.00011370","OBJECT_ID":"2022-045AG","MEAN_ELEMENT_THEORY":"SGP4","ARG_OF_PERICENTER":"116.7058","MEAN_ANOMALY":"243.4050","CLASSIFICATION_TYPE":"U","MEAN_MOTION":"15.08838525","EPOCH":"2023-06-04T21:36:41.516928","SEMIMAJOR_AXIS":"6917.885","CENTER_NAME":"EARTH","SITE":"AFETR","REV_AT_EPOCH":"6349","NORAD_CAT_ID":"52361","PERIOD":"95.438","OBJECT_TYPE":"PAYLOAD","COUNTRY_CODE":"US","PERIAPSIS":"538.963","ELEMENT_SET_NO":"999","OBJECT_NAME":"STARLINK-3728","FILE":"3925173","GP_ID":"233217604","TLE_LINE2":"2 52361  53.2171  47.7495 0001137 116.7058 243.4050 15.08838525 63499","DECAY_DATE":null,"REF_FRAME":"TEME","RA_OF_ASC_NODE":"47.7495","INCLINATION":"53.2171"},{"BSTAR":"0.00014311000000","ECCENTRICITY":"0.00011320","LAUNCH_DATE":"2022-04-29","MEAN_MOTION_DDOT":"0.0000000000000","ARG_OF_PERICENTER":"92.6189","MEAN_ANOMALY":"267.4933","CLASSIFICATION_TYPE":"U","MEAN_MOTION":"15.08843301","SEMIMAJOR_AXIS":"6917.870","EPOCH":"2023-06-04T21:11:30.846624","OBJECT_ID":"2022-045AH","MEAN_ELEMENT_THEORY":"SGP4","TIME_SYSTEM":"UTC","TLE_LINE1":"1 52362U 22045AH  23155.88299591  .00001991  00000-0  14311-3 0  9991","APOAPSIS":"540.518","RCS_SIZE":"LARGE","MEAN_MOTION_DOT":"0.00001991","EPHEMERIS_TYPE":"0","OBJECT_NAME":"STARLINK-3848","FILE":"3925173","OBJECT_TYPE":"PAYLOAD","COUNTRY_CODE":"US","PERIAPSIS":"538.952","ELEMENT_SET_NO":"999","DECAY_DATE":null,"RA_OF_ASC_NODE":"37.8261","REF_FRAME":"TEME","INCLINATION":"53.2176","GP_ID":"233217854","TLE_LINE2":"2 52362  53.2176  37.8261 0001132  92.6189 267.4933 15.08843301 63627","CENTER_NAME":"EARTH","SITE":"AFETR","PERIOD":"95.437","REV_AT_EPOCH":"6362","NORAD_CAT_ID":"52362"},{"MEAN_ELEMENT_THEORY":"SGP4","OBJECT_ID":"2022-045AJ","SEMIMAJOR_AXIS":"6917.877","EPOCH":"2023-06-04T21:31:23.382624","MEAN_MOTION":"15.08841188","MEAN_ANOMALY":"270.5203","CLASSIFICATION_TYPE":"U","ARG_OF_PERICENTER":"89.5916","MEAN_MOTION_DDOT":"0.0000000000000","LAUNCH_DATE":"2022-04-29","BSTAR":"0.00005511700000","ECCENTRICITY":"0.00011080","EPHEMERIS_TYPE":"0","MEAN_MOTION_DOT":"0.00000590","RCS_SIZE":"LARGE","APOAPSIS":"540.508","TLE_LINE1":"1 52363U 22045AJ  23155.89679841  .00000590  00000-0  55117-4 0  9997","TIME_SYSTEM":"UTC","TLE_LINE2":"2 52363  53.2185  47.7647 0001108  89.5916 270.5203 15.08841188 63493","GP_ID":"233218606","INCLINATION":"53.2185","RA_OF_ASC_NODE":"47.7647","REF_FRAME":"TEME","DECAY_DATE":null,"ELEMENT_SET_NO":"999","PERIAPSIS":"538.975","OBJECT_TYPE":"PAYLOAD","COUNTRY_CODE":"US","FILE":"3925173","OBJECT_NAME":"STARLINK-3830","NORAD_CAT_ID":"52363","REV_AT_EPOCH":"6349","PERIOD":"95.437","SITE":"AFETR","CENTER_NAME":"EARTH"},{"EPHEMERIS_TYPE":"0","MEAN_MOTION_DOT":"0.00001992","RCS_SIZE":"LARGE","TIME_SYSTEM":"UTC","TLE_LINE1":"1 52364U 22045AK  23155.93450572  .00001992  00000-0  14321-3 0  9999","APOAPSIS":"540.537","SEMIMAJOR_AXIS":"6917.874","EPOCH":"2023-06-04T22:25:41.294208","MEAN_MOTION":"15.08842192","CLASSIFICATION_TYPE":"U","MEAN_ANOMALY":"279.7776","ARG_OF_PERICENTER":"80.3347","MEAN_ELEMENT_THEORY":"SGP4","OBJECT_ID":"2022-045AK","BSTAR":"0.00014321000000","ECCENTRICITY":"0.00011540","MEAN_MOTION_DDOT":"0.0000000000000","LAUNCH_DATE":"2022-04-29","PERIOD":"95.437","NORAD_CAT_ID":"52364","REV_AT_EPOCH":"6363","SITE":"AFETR","CENTER_NAME":"EARTH","INCLINATION":"53.2170","REF_FRAME":"TEME","RA_OF_ASC_NODE":"37.5113","DECAY_DATE":null,"TLE_LINE2":"2 52364  53.2170  37.5113 0001154  80.3347 279.7776 15.08842192 63639","GP_ID":"233219357","FILE":"3925173","OBJECT_NAME":"STARLINK-3820","ELEMENT_SET_NO":"999","PERIAPSIS":"538.940","COUNTRY_CODE":"US","OBJECT_TYPE":"PAYLOAD"},{"APOAPSIS":"540.542","TIME_SYSTEM":"UTC","TLE_LINE1":"1 52365U 22045AL  23155.89035590  .00001537  00000-0  11464-3 0  9994","MEAN_MOTION_DOT":"0.00001537","RCS_SIZE":"LARGE","EPHEMERIS_TYPE":"0","MEAN_MOTION_DDOT":"0.0000000000000","LAUNCH_DATE":"2022-04-29","BSTAR":"0.00011464000000","ECCENTRICITY":"0.00011600","OBJECT_ID":"2022-045AL","MEAN_ELEMENT_THEORY":"SGP4","CLASSIFICATION_TYPE":"U","MEAN_ANOMALY":"273.8442","ARG_OF_PERICENTER":"86.2683","SEMIMAJOR_AXIS":"6917.875","EPOCH":"2023-06-04T21:22:06.749760","MEAN_MOTION":"15.08841813","CENTER_NAME":"EARTH","SITE":"AFETR","REV_AT_EPOCH":"6362","NORAD_CAT_ID":"52365","PERIOD":"95.437","COUNTRY_CODE":"US","OBJECT_TYPE":"PAYLOAD","ELEMENT_SET_NO":"999","PERIAPSIS":"538.937","OBJECT_NAME":"STARLINK-3874","FILE":"3925173","GP_ID":"233218105","TLE_LINE2":"2 52365  53.2178  37.7954 0001160  86.2683 273.8442 15.08841813 63621","RA_OF_ASC_NODE":"37.7954","REF_FRAME":"TEME","DECAY_DATE":null,"INCLINATION":"53.2178"},{"ECCENTRICITY":"0.00012140","BSTAR":"0.00007702800000","LAUNCH_DATE":"2022-04-29","MEAN_MOTION_DDOT":"0.0000000000000","ARG_OF_PERICENTER":"91.4033","CLASSIFICATION_TYPE":"U","MEAN_ANOMALY":"268.7098","MEAN_MOTION":"15.08838807","EPOCH":"2023-06-04T22:31:00.265728","SEMIMAJOR_AXIS":"6917.884","OBJECT_ID":"2022-045AM","MEAN_ELEMENT_THEORY":"SGP4","TIME_SYSTEM":"UTC","TLE_LINE1":"1 52366U 22045AM  23155.93819752  .00000938  00000-0  77028-4 0  9993","APOAPSIS":"540.589","RCS_SIZE":"LARGE","MEAN_MOTION_DOT":"0.00000938","EPHEMERIS_TYPE":"0","OBJECT_NAME":"STARLINK-3808","FILE":"3925173","OBJECT_TYPE":"PAYLOAD","COUNTRY_CODE":"US","PERIAPSIS":"538.909","ELEMENT_SET_NO":"999","DECAY_DATE":null,"REF_FRAME":"TEME","RA_OF_ASC_NODE":"37.5827","INCLINATION":"53.2176","GP_ID":"233218355","TLE_LINE2":"2 52366  53.2176  37.5827 0001214  91.4033 268.7098 15.08838807 63634","CENTER_NAME":"EARTH","SITE":"AFETR","PERIOD":"95.438","REV_AT_EPOCH":"6363","NORAD_CAT_ID":"52366"},{"LAUNCH_DATE":"2022-04-29","MEAN_MOTION_DDOT":"0.0000000000000","BSTAR":"0.00012196000000","ECCENTRICITY":"0.00012280","OBJECT_ID":"2022-045AN","MEAN_ELEMENT_THEORY":"SGP4","ARG_OF_PERICENTER":"88.7512","MEAN_ANOMALY":"271.3621","CLASSIFICATION_TYPE":"U","MEAN_MOTION":"15.08846060","SEMIMAJOR_AXIS":"6917.862","EPOCH":"2023-06-04T22:41:35.599488","APOAPSIS":"540.576","TLE_LINE1":"1 52367U 22045AN  23155.94555092  .00001654  00000-0  12196-3 0  9999","TIME_SYSTEM":"UTC","RCS_SIZE":"LARGE","MEAN_MOTION_DOT":"0.00001654","EPHEMERIS_TYPE":"0","OBJECT_TYPE":"PAYLOAD","COUNTRY_CODE":"US","PERIAPSIS":"538.877","ELEMENT_SET_NO":"999","OBJECT_NAME":"STARLINK-3817","FILE":"3925173","GP_ID":"233219107","TLE_LINE2":"2 52367  53.2172  37.5460 0001228  88.7512 271.3621 15.08846060 63632","DECAY_DATE":null,"RA_OF_ASC_NODE":"37.5460","REF_FRAME":"TEME","INCLINATION":"53.2172","CENTER_NAME":"EARTH","SITE":"AFETR","REV_AT_EPOCH":"6363","NORAD_CAT_ID":"52367","PERIOD":"95.437"},{"PERIOD":"95.438","REV_AT_EPOCH":"6362","NORAD_CAT_ID":"52368","CENTER_NAME":"EARTH","SITE":"AFETR","REF_FRAME":"TEME","RA_OF_ASC_NODE":"37.6290","DECAY_DATE":null,"INCLINATION":"53.2169","GP_ID":"233218857","TLE_LINE2":"2 52368  53.2169  37.6290 0001215  93.5957 266.5174 15.08840356 63624","OBJECT_NAME":"STARLINK-3834","FILE":"3925173","COUNTRY_CODE":"US","OBJECT_TYPE":"PAYLOAD","ELEMENT_SET_NO":"999","PERIAPSIS":"538.904","MEAN_MOTION_DOT":"0.00000213","RCS_SIZE":"LARGE","EPHEMERIS_TYPE":"0","TLE_LINE1":"1 52368U 22045AP  23155.92716064  .00000213  00000-0  31468-4 0  9990","TIME_SYSTEM":"UTC","APOAPSIS":"540.585","CLASSIFICATION_TYPE":"U","MEAN_ANOMALY":"266.5174","ARG_OF_PERICENTER":"93.5957","EPOCH":"2023-06-04T22:15:06.679296","SEMIMAJOR_AXIS":"6917.879","MEAN_MOTION":"15.08840356","OBJECT_ID":"2022-045AP","MEAN_ELEMENT_THEORY":"SGP4","BSTAR":"0.00003146800000","ECCENTRICITY":"0.00012150","MEAN_MOTION_DDOT":"0.0000000000000","LAUNCH_DATE":"2022-04-29"},{"RCS_SIZE":"LARGE","MEAN_MOTION_DOT":"0.00001228","EPHEMERIS_TYPE":"0","TLE_LINE1":"1 52369U 22045AQ  23155.94187655  .00001228  00000-0  95249-4 0  9995","TIME_SYSTEM":"UTC","APOAPSIS":"540.547","ARG_OF_PERICENTER":"90.8596","CLASSIFICATION_TYPE":"U","MEAN_ANOMALY":"269.2531","MEAN_MOTION":"15.08842691","SEMIMAJOR_AXIS":"6917.872","EPOCH":"2023-06-04T22:36:18.133920","OBJECT_ID":"2022-045AQ","MEAN_ELEMENT_THEORY":"SGP4","ECCENTRICITY":"0.00011700","BSTAR":"0.00009524900000","LAUNCH_DATE":"2022-04-29","MEAN_MOTION_DDOT":"0.0000000000000","PERIOD":"95.437","REV_AT_EPOCH":"6363","NORAD_CAT_ID":"52369","CENTER_NAME":"EARTH","SITE":"AFETR","DECAY_DATE":null,"REF_FRAME":"TEME","RA_OF_ASC_NODE":"37.5661","INCLINATION":"53.2178","GP_ID":"233217605","TLE_LINE2":"2 52369  53.2178  37.5661 0001170  90.8596 269.2531 15.08842691 63637","OBJECT_NAME":"STARLINK-3841","FILE":"3925173","OBJECT_TYPE":"PAYLOAD","COUNTRY_CODE":"US","PERIAPSIS":"538.928","ELEMENT_SET_NO":"999"}];
